[
    {
        "Altitude(m)": 559391.9688429261,
        "Argument of Periapsis(deg)": 0.033114955553567506,
        "Eccentricity": 0.0,
        "Inclination(deg)": 53.0,
        "Latitude(deg)": 50.92940100709784,
        "Longitude(deg)": -61.597550155045994,
        "Mean Anomaly(deg)": -284.087435662112,
        "RAAN(deg)": 334.9507168426401,
        "Satellite Name": "Starlink Shell 1 1475",
        "Satellite Number": 1475,
        "Semi-Major Axis(m)": 6931778.249405717,
        "Time(s)": 950
    },
    {
        "Altitude(m)": 559435.2239663383,
        "Argument of Periapsis(deg)": 0.03346353403307874,
        "Eccentricity": 0.0,
        "Inclination(deg)": 53.0,
        "Latitude(deg)": 51.11814096277881,
        "Longitude(deg)": -60.690995289353246,
        "Mean Anomaly(deg)": -283.46060445855534,
        "RAAN(deg)": 334.9501980725626,
        "Satellite Name": "Starlink Shell 1 1475",
        "Satellite Number": 1475,
        "Semi-Major Axis(m)": 6931778.249405717,
        "Time(s)": 960
    },
    {
        "Altitude(m)": 559476.6893732218,
        "Argument of Periapsis(deg)": 0.03381211251258998,
        "Eccentricity": 0.0,
        "Inclination(deg)": 53.0,
        "Latitude(deg)": 51.29913408636293,
        "Longitude(deg)": -59.77685146474768,
        "Mean Anomaly(deg)": -282.8337732549987,
        "RAAN(deg)": 334.94967930248515,
        "Satellite Name": "Starlink Shell 1 1475",
        "Satellite Number": 1475,
        "Semi-Major Axis(m)": 6931778.249405717,
        "Time(s)": 970
    },
    {
        "Altitude(m)": 559516.3400212827,
        "Argument of Periapsis(deg)": 0.034160690992101214,
        "Eccentricity": 0.0,
        "Inclination(deg)": 53.0,
        "Latitude(deg)": 51.472269798628986,
        "Longitude(deg)": -58.855334265809084,
        "Mean Anomaly(deg)": -282.2069420514419,
        "RAAN(deg)": 334.9491605324077,
        "Satellite Name": "Starlink Shell 1 1475",
        "Satellite Number": 1475,
        "Semi-Major Axis(m)": 6931778.249405717,
        "Time(s)": 980
    },
    {
        "Altitude(m)": 559554.1519850479,
        "Argument of Periapsis(deg)": 0.034509269471612446,
        "Eccentricity": 0.0,
        "Inclination(deg)": 53.0,
        "Latitude(deg)": 51.637440386164826,
        "Longitude(deg)": -57.92667521982192,
        "Mean Anomaly(deg)": -281.5801108478852,
        "RAAN(deg)": 334.9486417623302,
        "Satellite Name": "Starlink Shell 1 1475",
        "Satellite Number": 1475,
        "Semi-Major Axis(m)": 6931778.249405717,
        "Time(s)": 990
    }
]